ONEWEB-0645             
1 55809U 23029P   25237.78316261  .00000033  00000+0  49901-4 0  9998
2 55809  87.9259   3.7174 0001835  87.7334 272.4009 13.19725044119944
ONEWEB-0646             
1 55810U 23029Q   25237.74359909 -.00000033  00000+0 -11526-3 0  9995
2 55810  87.9260   3.7197 0001575  96.5581 263.5730 13.19254216119924
ONEWEB-0648             
1 55811U 23029R   25237.77539105  .00000071  00000+0  15789-3 0  9992
2 55811  87.9085 348.5114 0001553  67.3249 292.8045 13.14503626120587
ONEWEB-0649             
1 55812U 23029S   25237.77605250  .00000013  00000+0  60209-6 0  9994
2 55812  87.9271   3.7063 0001604  82.9117 277.2198 13.19725528119960
ONEWEB-0650             
1 55813U 23029T   25237.77131631  .00000026  00000+0  33709-4 0  9999
2 55813  87.9268   3.7182 0001644  94.9616 265.1705 13.19725109119932
ONEWEB-0652             
1 55814U 23029U   25237.75635498  .00000198  00000+0  49963-3 0  9996
2 55814  87.9094 348.5282 0001956 103.2998 256.8350 13.14502018120554
ONEWEB-0653             
1 55815U 23029V   25237.74050184  .00000003  00000+0 -25834-4 0  9997
2 55815  87.9093 348.5206 0002061  98.4168 261.7195 13.14503468120587
ONEWEB-0654             
1 55816U 23029W   25237.73573199 -.00000122  00000+0 -36437-3 0  9996
2 55816  87.9090 348.5198 0002200 105.8241 254.3131 13.14503717120603
